[{"OBJECT_NAME":"STARLINK-30614","OBJECT_ID":"2023-161B","EPOCH":"2026-03-09T22:59:31.957728","MEAN_MOTION":15.30191937,"ECCENTRICITY":8.944e-5,"INCLINATION":53.1587,"RA_OF_ASC_NODE":164.221,"ARG_OF_PERICENTER":96.707,"MEAN_ANOMALY":263.4033,"EPHEMERIS_TYPE":0,"CLASSIFICATION_TYPE":"U","NORAD_CAT_ID":58098,"ELEMENT_SET_NO":999,"REV_AT_EPOCH":13446,"BSTAR":0.00012880452,"MEAN_MOTION_DOT":3.457e-5,"MEAN_MOTION_DDOT":0},{"OBJECT_NAME":"AIST-2 (RS43)","OBJECT_ID":"2013-015D","EPOCH":"2026-03-09T22:52:25.813056","MEAN_MOTION":15.25079544,"ECCENTRICITY":0.00239979,"INCLINATION":64.8687,"RA_OF_ASC_NODE":221.5348,"ARG_OF_PERICENTER":248.8384,"MEAN_ANOMALY":111.0181,"EPHEMERIS_TYPE":0,"CLASSIFICATION_TYPE":"U","NORAD_CAT_ID":39133,"ELEMENT_SET_NO":999,"REV_AT_EPOCH":70876,"BSTAR":0.00037899099,"MEAN_MOTION_DOT":9.402e-5,"MEAN_MOTION_DDOT":0}]
